start=new Date('2022-08-15T00:00:00.000Z').valueOf();
sats=[{"RCS_SIZE":"LARGE","LAUNCH_DATE":"2020-01-07","FILE":"3536615","RA_OF_ASC_NODE":"75.4564","ARG_OF_PERICENTER":"73.7511","CLASSIFICATION_TYPE":"U","TIME_SYSTEM":"UTC","PERIAPSIS":"546.257","OBJECT_NAME":"STARLINK-1104","MEAN_MOTION_DOT":"0.00000047","TLE_LINE2":"2 44922  53.0558  75.4564 0001370  73.7511 286.3629 15.06402432143477","MEAN_ELEMENT_THEORY":"SGP4","SITE":"AFETR","OBJECT_TYPE":"PAYLOAD","EPHEMERIS_TYPE":"0","MEAN_MOTION":"15.06402432","DECAY_DATE":null,"TLE_LINE1":"1 44922U 20001J   22226.81386792  .00000047  00000-0  22055-4 0  9991","OBJECT_ID":"2020-001J","PERIOD":"95.592","REF_FRAME":"TEME","GP_ID":"210229335","ECCENTRICITY":"0.00013700","COUNTRY_CODE":"US","EPOCH":"2022-08-14T19:31:58.188288","MEAN_ANOMALY":"286.3629","REV_AT_EPOCH":"14347","APOAPSIS":"548.155","BSTAR":"0.00002205500000","MEAN_MOTION_DDOT":"0.0000000000000","NORAD_CAT_ID":"44922","SEMIMAJOR_AXIS":"6925.341","ELEMENT_SET_NO":"999","CENTER_NAME":"EARTH","INCLINATION":"53.0558"},{"EPOCH":"2022-08-14T20:09:07.183872","MEAN_ANOMALY":"270.5595","REV_AT_EPOCH":"14347","APOAPSIS":"548.088","GP_ID":"210229585","ECCENTRICITY":"0.00013070","COUNTRY_CODE":"US","OBJECT_ID":"2020-001K","PERIOD":"95.592","REF_FRAME":"TEME","TLE_LINE1":"1 44923U 20001K   22226.83966648  .00002655  00000-0  19703-3 0  9990","SEMIMAJOR_AXIS":"6925.318","ELEMENT_SET_NO":"999","CENTER_NAME":"EARTH","INCLINATION":"53.0538","NORAD_CAT_ID":"44923","MEAN_MOTION_DDOT":"0.0000000000000","BSTAR":"0.00019703000000","PERIAPSIS":"546.278","MEAN_MOTION_DOT":"0.00002655","OBJECT_NAME":"STARLINK-1106","TLE_LINE2":"2 44923  53.0538  75.3455 0001307  89.5544 270.5595 15.06409910143470","MEAN_ELEMENT_THEORY":"SGP4","TIME_SYSTEM":"UTC","LAUNCH_DATE":"2020-01-07","RCS_SIZE":"LARGE","FILE":"3536615","ARG_OF_PERICENTER":"89.5544","RA_OF_ASC_NODE":"75.3455","CLASSIFICATION_TYPE":"U","EPHEMERIS_TYPE":"0","MEAN_MOTION":"15.06409910","DECAY_DATE":null,"OBJECT_TYPE":"PAYLOAD","SITE":"AFETR"},{"SEMIMAJOR_AXIS":"6925.343","ELEMENT_SET_NO":"999","CENTER_NAME":"EARTH","INCLINATION":"53.0545","NORAD_CAT_ID":"44924","MEAN_MOTION_DDOT":"0.0000000000000","BSTAR":"-0.00003063800000","EPOCH":"2022-08-14T19:53:12.297120","MEAN_ANOMALY":"276.7441","REV_AT_EPOCH":"14347","APOAPSIS":"548.131","GP_ID":"210229834","ECCENTRICITY":"0.00013320","COUNTRY_CODE":"US","OBJECT_ID":"2020-001L","PERIOD":"95.592","REF_FRAME":"TEME","TLE_LINE1":"1 44924U 20001L   22226.82861455 -.00000738  00000-0 -30638-4 0  9993","EPHEMERIS_TYPE":"0","DECAY_DATE":null,"MEAN_MOTION":"15.06401698","OBJECT_TYPE":"PAYLOAD","SITE":"AFETR","PERIAPSIS":"546.286","OBJECT_NAME":"STARLINK-1111","MEAN_MOTION_DOT":"-0.00000738","TLE_LINE2":"2 44924  53.0545  75.4048 0001332  83.3699 276.7441 15.06401698143472","MEAN_ELEMENT_THEORY":"SGP4","TIME_SYSTEM":"UTC","RCS_SIZE":"LARGE","LAUNCH_DATE":"2020-01-07","FILE":"3536615","ARG_OF_PERICENTER":"83.3699","RA_OF_ASC_NODE":"75.4048","CLASSIFICATION_TYPE":"U"},{"MEAN_MOTION_DDOT":"0.0000000000000","BSTAR":"0.00032605000000","CENTER_NAME":"EARTH","INCLINATION":"53.0539","SEMIMAJOR_AXIS":"6925.344","ELEMENT_SET_NO":"999","NORAD_CAT_ID":"44925","REF_FRAME":"TEME","OBJECT_ID":"2020-001M","PERIOD":"95.592","TLE_LINE1":"1 44925U 20001M   22226.84335520  .00004579  00000-0  32605-3 0  9995","REV_AT_EPOCH":"14347","APOAPSIS":"548.180","EPOCH":"2022-08-14T20:14:25.889280","MEAN_ANOMALY":"284.5019","ECCENTRICITY":"0.00014020","COUNTRY_CODE":"US","GP_ID":"210230084","OBJECT_TYPE":"PAYLOAD","SITE":"AFETR","EPHEMERIS_TYPE":"0","MEAN_MOTION":"15.06401523","DECAY_DATE":null,"TIME_SYSTEM":"UTC","FILE":"3536615","RA_OF_ASC_NODE":"75.3177","ARG_OF_PERICENTER":"75.6126","CLASSIFICATION_TYPE":"U","LAUNCH_DATE":"2020-01-07","RCS_SIZE":"LARGE","OBJECT_NAME":"STARLINK-1112","MEAN_MOTION_DOT":"0.00004579","MEAN_ELEMENT_THEORY":"SGP4","TLE_LINE2":"2 44925  53.0539  75.3177 0001402  75.6126 284.5019 15.06401523143470","PERIAPSIS":"546.238"},{"MEAN_MOTION":"15.05577711","DECAY_DATE":null,"EPHEMERIS_TYPE":"0","OBJECT_TYPE":"PAYLOAD","SITE":"AFETR","MEAN_ELEMENT_THEORY":"SGP4","TLE_LINE2":"2 44926  52.9997  75.4567 0001468 104.0726 256.0425 15.05577711144171","MEAN_MOTION_DOT":"-0.00001519","OBJECT_NAME":"STARLINK-1113","PERIAPSIS":"548.718","CLASSIFICATION_TYPE":"U","FILE":"3536615","RA_OF_ASC_NODE":"75.4567","ARG_OF_PERICENTER":"104.0726","LAUNCH_DATE":"2020-01-07","RCS_SIZE":"LARGE","TIME_SYSTEM":"UTC","NORAD_CAT_ID":"44926","CENTER_NAME":"EARTH","INCLINATION":"52.9997","ELEMENT_SET_NO":"999","SEMIMAJOR_AXIS":"6927.870","BSTAR":"-0.00008511400000","MEAN_MOTION_DDOT":"0.0000000000000","COUNTRY_CODE":"US","ECCENTRICITY":"0.00014680","GP_ID":"210228835","APOAPSIS":"550.752","REV_AT_EPOCH":"14417","MEAN_ANOMALY":"256.0425","EPOCH":"2022-08-14T19:36:39.491136","TLE_LINE1":"1 44926U 20001N   22226.81712374 -.00001519  00000-0 -85114-4 0  9996","REF_FRAME":"TEME","PERIOD":"95.644","OBJECT_ID":"2020-001N"},{"EPHEMERIS_TYPE":"0","DECAY_DATE":null,"MEAN_MOTION":"15.06396914","OBJECT_TYPE":"PAYLOAD","SITE":"AFETR","PERIAPSIS":"546.183","OBJECT_NAME":"STARLINK-1114","MEAN_MOTION_DOT":"-0.00000326","MEAN_ELEMENT_THEORY":"SGP4","TLE_LINE2":"2 44927  53.0544  75.2623 0001502  75.3465 284.7691 15.06396914143483","LAUNCH_DATE":"2020-01-07","RCS_SIZE":"LARGE","FILE":"3536615","ARG_OF_PERICENTER":"75.3465","RA_OF_ASC_NODE":"75.2623","CLASSIFICATION_TYPE":"U","TIME_SYSTEM":"UTC","NORAD_CAT_ID":"44927","SEMIMAJOR_AXIS":"6925.358","ELEMENT_SET_NO":"999","CENTER_NAME":"EARTH","INCLINATION":"53.0544","BSTAR":"-0.00000296300000","MEAN_MOTION_DDOT":"0.0000000000000","GP_ID":"210229085","ECCENTRICITY":"0.00015020","COUNTRY_CODE":"US","EPOCH":"2022-08-14T20:30:20.853792","MEAN_ANOMALY":"284.7691","REV_AT_EPOCH":"14348","APOAPSIS":"548.263","TLE_LINE1":"1 44927U 20001P   22226.85440803 -.00000326  00000-0 -29630-5 0  9993","OBJECT_ID":"2020-001P","PERIOD":"95.592","REF_FRAME":"TEME"},{"MEAN_MOTION_DDOT":"0.0000000000000","BSTAR":"0.00031504000000","CENTER_NAME":"EARTH","INCLINATION":"53.0549","SEMIMAJOR_AXIS":"6925.306","ELEMENT_SET_NO":"999","NORAD_CAT_ID":"44928","REF_FRAME":"TEME","OBJECT_ID":"2020-001Q","PERIOD":"95.591","TLE_LINE1":"1 44928U 20001Q   22226.85072819  .00004416  00000-0  31504-3 0  9995","APOAPSIS":"548.241","REV_AT_EPOCH":"14348","EPOCH":"2022-08-14T20:25:02.915616","MEAN_ANOMALY":"281.8925","ECCENTRICITY":"0.00015450","COUNTRY_CODE":"US","GP_ID":"210230334","OBJECT_TYPE":"PAYLOAD","SITE":"AFETR","EPHEMERIS_TYPE":"0","MEAN_MOTION":"15.06414024","DECAY_DATE":null,"TIME_SYSTEM":"UTC","ARG_OF_PERICENTER":"78.2237","FILE":"3536615","RA_OF_ASC_NODE":"75.2812","CLASSIFICATION_TYPE":"U","LAUNCH_DATE":"2020-01-07","RCS_SIZE":"LARGE","MEAN_MOTION_DOT":"0.00004416","OBJECT_NAME":"STARLINK-1119","MEAN_ELEMENT_THEORY":"SGP4","TLE_LINE2":"2 44928  53.0549  75.2812 0001545  78.2237 281.8925 15.06414024143486","PERIAPSIS":"546.101"},{"GP_ID":"210230583","ECCENTRICITY":"0.00015200","COUNTRY_CODE":"US","EPOCH":"2022-08-14T20:03:48.704832","MEAN_ANOMALY":"277.1521","REV_AT_EPOCH":"14347","APOAPSIS":"548.266","TLE_LINE1":"1 44929U 20001R   22226.83598038  .00001052  00000-0  89513-4 0  9997","OBJECT_ID":"2020-001R","PERIOD":"95.592","REF_FRAME":"TEME","NORAD_CAT_ID":"44929","SEMIMAJOR_AXIS":"6925.349","ELEMENT_SET_NO":"999","INCLINATION":"53.0556","CENTER_NAME":"EARTH","BSTAR":"0.00008951300000","MEAN_MOTION_DDOT":"0.0000000000000","PERIAPSIS":"546.161","MEAN_MOTION_DOT":"0.00001052","OBJECT_NAME":"STARLINK-1121","MEAN_ELEMENT_THEORY":"SGP4","TLE_LINE2":"2 44929  53.0556  75.3486 0001520  82.9641 277.1521 15.06399996143476","LAUNCH_DATE":"2020-01-07","RCS_SIZE":"LARGE","FILE":"3536615","ARG_OF_PERICENTER":"82.9641","RA_OF_ASC_NODE":"75.3486","CLASSIFICATION_TYPE":"U","TIME_SYSTEM":"UTC","EPHEMERIS_TYPE":"0","MEAN_MOTION":"15.06399996","DECAY_DATE":null,"SITE":"AFETR","OBJECT_TYPE":"PAYLOAD"},{"OBJECT_TYPE":"PAYLOAD","SITE":"AFETR","DECAY_DATE":null,"MEAN_MOTION":"15.06404046","EPHEMERIS_TYPE":"0","TIME_SYSTEM":"UTC","LAUNCH_DATE":"2020-01-07","RCS_SIZE":"LARGE","CLASSIFICATION_TYPE":"U","RA_OF_ASC_NODE":"75.5072","FILE":"3536615","ARG_OF_PERICENTER":"80.2236","PERIAPSIS":"546.181","MEAN_ELEMENT_THEORY":"SGP4","TLE_LINE2":"2 44930  53.0563  75.5072 0001473  80.2236 279.8920 15.06404046143472","MEAN_MOTION_DOT":"-0.00000246","OBJECT_NAME":"STARLINK-1123","MEAN_MOTION_DDOT":"0.0000000000000","BSTAR":"0.00000235840000","ELEMENT_SET_NO":"999","SEMIMAJOR_AXIS":"6925.336","INCLINATION":"53.0563","CENTER_NAME":"EARTH","NORAD_CAT_ID":"44930","PERIOD":"95.592","OBJECT_ID":"2020-001S","REF_FRAME":"TEME","TLE_LINE1":"1 44930U 20001S   22226.80281324 -.00000246  00000-0  23584-5 0  9995","MEAN_ANOMALY":"279.8920","EPOCH":"2022-08-14T19:16:03.063936","REV_AT_EPOCH":"14347","APOAPSIS":"548.221","GP_ID":"210229336","COUNTRY_CODE":"US","ECCENTRICITY":"0.00014730"},{"PERIAPSIS":"533.557","TLE_LINE2":"2 44931  53.0548  68.2366 0001652  78.1221 281.9955 15.10492571144322","MEAN_ELEMENT_THEORY":"SGP4","MEAN_MOTION_DOT":"0.00001171","OBJECT_NAME":"STARLINK-1128","LAUNCH_DATE":"2020-01-07","RCS_SIZE":"LARGE","CLASSIFICATION_TYPE":"U","ARG_OF_PERICENTER":"78.1221","FILE":"3536615","RA_OF_ASC_NODE":"68.2366","TIME_SYSTEM":"UTC","DECAY_DATE":null,"MEAN_MOTION":"15.10492571","EPHEMERIS_TYPE":"0","SITE":"AFETR","OBJECT_TYPE":"PAYLOAD","GP_ID":"210229586","COUNTRY_CODE":"US","ECCENTRICITY":"0.00016520","MEAN_ANOMALY":"281.9955","EPOCH":"2022-08-14T19:56:58.071552","APOAPSIS":"535.841","REV_AT_EPOCH":"14432","TLE_LINE1":"1 44931U 20001T   22226.83122768  .00001171  00000-0  87905-4 0  9998","PERIOD":"95.333","OBJECT_ID":"2020-001T","REF_FRAME":"TEME","NORAD_CAT_ID":"44931","ELEMENT_SET_NO":"999","SEMIMAJOR_AXIS":"6912.834","INCLINATION":"53.0548","CENTER_NAME":"EARTH","BSTAR":"0.00008790500000","MEAN_MOTION_DDOT":"0.0000000000000"}];
